H1 CPF 01  gfz 2021 09 06 12  7492 terrasarx 
H2 0702601  6201 31698    2021 09 06 12 59 42 2021 09 11 00 00 42   120 1 1  0 0 0
H9
10 0 59465  72702.000000  0    5735881.536  -3389253.754  -1763561.151
10 0 59465  72822.000000  0    5789926.651  -3632265.011   -876144.552
10 0 59465  72942.000000  0    5739167.860  -3811876.054     26679.402
10 0 59465  73062.000000  0    5585585.861  -3923093.659    929032.889
10 0 59465  73182.000000  0    5333055.263  -3962181.320   1815030.560
10 0 59465  73302.000000  0    4987254.243  -3926759.315   2669069.313
10 0 59465  73422.000000  0    4555537.770  -3815876.474   3476110.597
10 0 59465  73542.000000  0    4046779.537  -3630052.984   4221951.187
10 0 59465  73662.000000  0    3471185.544  -3371293.765   4893477.675
10 0 59465  73782.000000  0    2840082.189  -3043070.376   5478898.279
10 0 59465  73902.000000  0    2165687.905  -2650272.877   5967947.670
10 0 59465  74022.000000  0    1460871.188  -2199133.743   6352062.716
10 0 59465  74142.000000  0     738901.390  -1697125.844   6624526.247
10 0 59465  74262.000000  0      13197.010  -1152835.875   6780578.484
10 0 59465  74382.000000  0    -702923.780   -575815.613   6817494.818
10 0 59465  74502.000000  0   -1396486.423     23586.169   6734629.769
10 0 59465  74622.000000  0   -2055094.046    634408.848   6533427.670
10 0 59465  74742.000000  0   -2667148.449   1245279.604   6217399.262
10 0 59465  74862.000000  0   -3222055.010   1844624.126   5792064.508
10 0 59465  74982.000000  0   -3710408.621   2420885.568   5264862.703
10 0 59465  75102.000000  0   -4124157.854   2962748.891   4645028.794
10 0 59465  75222.000000  0   -4456743.299   3459365.331   3943436.775
10 0 59465  75342.000000  0   -4703207.901   3900572.311   3172412.424
10 0 59465  75462.000000  0   -4860275.376   4277104.709   2345517.790
10 0 59465  75582.000000  0   -4926395.546   4580793.378   1477311.334
10 0 59465  75702.000000  0   -4901754.361   4804744.133    583085.996
10 0 59465  75822.000000  0   -4788248.899   4943491.399   -321407.178
10 0 59465  75942.000000  0   -4589428.695   4993125.503  -1220245.044
10 0 59465  76062.000000  0   -4310401.081   4951388.543  -2097623.504
10 0 59465  76182.000000  0   -3957705.594   4817735.521  -2938142.927
10 0 59465  76302.000000  0   -3539161.620   4593359.895  -3727084.676
10 0 59465  76422.000000  0   -3063691.901   4281183.557  -4450669.922
10 0 59465  76542.000000  0   -2541128.896   3885813.187  -5096296.558
10 0 59465  76662.000000  0   -1982009.486   3413466.031  -5652751.400
10 0 59465  76782.000000  0   -1397361.334   2871865.660  -6110396.882
10 0 59465  76902.000000  0    -798484.954   2270109.046  -6461327.675
10 0 59465  77022.000000  0    -196737.037   1618509.903  -6699495.152
10 0 59465  77142.000000  0     396680.749    928421.356  -6820801.041
10 0 59465  77262.000000  0     970924.931    212040.770  -6823161.038
10 0 59465  77382.000000  0    1515704.569   -517801.955  -6706537.075
10 0 59465  77502.000000  0    2021460.912  -1247869.036  -6472936.211
10 0 59465  77622.000000  0    2479531.401  -1964748.484  -6126379.965
10 0 59465  77742.000000  0    2882296.558  -2655094.380  -5672842.754
10 0 59465  77862.000000  0    3223307.990  -3305872.671  -5120161.057
10 0 59465  77982.000000  0    3497395.084  -3904608.504  -4477907.843
10 0 59465  78102.000000  0    3700745.653  -4439626.230  -3757236.108
10 0 59465  78222.000000  0    3830962.030  -4900280.594  -2970695.720
10 0 59465  78342.000000  0    3887091.407  -5277175.528  -2132022.258
10 0 59465  78462.000000  0    3869626.392  -5562363.654  -1255899.032
10 0 59465  78582.000000  0    3780476.555  -5749519.709   -357698.713
10 0 59465  78702.000000  0    3622910.582  -5834084.683    546791.751
10 0 59465  78822.000000  0    3401470.040  -5813375.610   1441655.538
10 0 59465  78942.000000  0    3121857.846  -5686658.343   2311135.797
10 0 59465  79062.000000  0    2790801.749  -5455178.894   3139922.143
10 0 59465  79182.000000  0    2415898.299  -5122155.942   3913426.555
10 0 59465  79302.000000  0    2005442.256  -4692734.070   4618044.910
10 0 59465  79422.000000  0    1568244.354  -4173898.297   5241398.630
10 0 59465  79542.000000  0    1113443.129  -3574352.971   5772551.890
10 0 59465  79662.000000  0     650312.951  -2904366.829   6202200.633
10 0 59465  79782.000000  0     188074.724  -2175589.908   6522828.699
10 0 59465  79902.000000  0    -264286.649  -1400846.544   6728832.234
10 0 59465  80022.000000  0    -698195.434   -593908.027   6816612.716
10 0 59465  80142.000000  0   -1105646.448    230753.667   6784636.630
10 0 59465  80262.000000  0   -1479352.150   1058225.387   6633460.321
10 0 59465  80382.000000  0   -1812872.568   1873421.668   6365720.678
10 0 59465  80502.000000  0   -2100726.819   2661358.969   5986092.235
10 0 59465  80622.000000  0   -2338483.932   3407431.641   5501210.370
10 0 59465  80742.000000  0   -2522831.882   4097684.731   4919561.923
10 0 59465  80862.000000  0   -2651624.527   4719080.201   4251343.323
10 0 59465  80982.000000  0   -2723904.085   5259750.396   3508286.388
10 0 59465  81102.000000  0   -2739898.658   5709233.029   2703454.033
10 0 59465  81222.000000  0   -2700994.597   6058681.440   1851009.757
10 0 59465  81342.000000  0   -2609684.660   6301045.965    965965.107
10 0 59465  81462.000000  0   -2469492.303   6431221.568     63909.493
10 0 59465  81582.000000  0   -2284874.533   6446157.817   -839272.327
10 0 59465  81702.000000  0   -2061105.899   6344928.423  -1727690.167
10 0 59465  81822.000000  0   -1804144.619   6128754.543  -2585739.615
10 0 59465  81942.000000  0   -1520485.589   5800982.633  -3398381.152
10 0 59465  82062.000000  0   -1217006.294   5367023.601  -4151405.156
10 0 59465  82182.000000  0    -900808.461   4834251.747  -4831679.542
10 0 59465  82302.000000  0    -579059.115   4211868.031  -5427373.394
10 0 59465  82422.000000  0    -258834.387   3510731.510  -5928155.758
10 0 59465  82542.000000  0      53030.789   2743160.910  -6325365.599
10 0 59465  82662.000000  0     350083.019   1922712.139  -6612149.521
10 0 59465  82782.000000  0     626378.558   1063938.389  -6783569.084
10 0 59465  82902.000000  0     876597.953    182133.948  -6836677.416
10 0 59465  83022.000000  0    1096144.977   -706933.666  -6770564.086
10 0 59465  83142.000000  0    1281228.323  -1587299.615  -6586367.536
10 0 59465  83262.000000  0    1428925.400  -2443080.169  -6287256.844
10 0 59465  83382.000000  0    1537228.457  -3258752.298  -5878384.547
10 0 59465  83502.000000  0    1605071.070  -4019433.142  -5366808.527
10 0 59465  83622.000000  0    1632334.553  -4711152.643  -4761379.784
10 0 59465  83742.000000  0    1619835.142  -5321112.244  -4072600.036
10 0 59465  83862.000000  0    1569290.882  -5837929.301  -3312450.704
10 0 59465  83982.000000  0    1483267.988  -6251859.820  -2494191.863
10 0 59465  84102.000000  0    1365109.207  -6554993.551  -1632135.024
10 0 59465  84222.000000  0    1218844.960  -6741416.849   -741393.227
10 0 59465  84342.000000  0    1049087.652  -6807338.780    162387.381
10 0 59465  84462.000000  0     860914.074  -6751175.193   1063308.675
10 0 59465  84582.000000  0     659736.920  -6573589.786   1945508.215
10 0 59465  84702.000000  0     451170.022  -6277489.654   2793448.663
10 0 59465  84822.000000  0     240889.510  -5867973.530   3592200.665
10 0 59465  84942.000000  0      34494.426  -5352236.158   4327710.788
10 0 59465  85062.000000  0    -162628.422  -4739433.647   4987051.638
10 0 59465  85182.000000  0    -345432.531  -4040510.753   5558649.568
10 0 59465  85302.000000  0    -509329.319  -3267995.772   6032485.990
10 0 59465  85422.000000  0    -650293.405  -2435765.958   6400268.240
10 0 59465  85542.000000  0    -764953.257  -1558792.338   6655566.628
10 0 59465  85662.000000  0    -850665.587   -652868.459   6793921.082
10 0 59465  85782.000000  0    -905572.720    265675.424   6812915.558
10 0 59465  85902.000000  0    -928641.391   1180266.972   6712217.661
10 0 59465  86022.000000  0    -919681.606   2074390.252   6493583.958
10 0 59465  86142.000000  0    -879346.203   2931883.400   6160831.246
10 0 59465  86262.000000  0    -809111.465   3737231.373   5719774.351
10 0 59465  86382.000000  0    -711238.607   4475849.434   5178129.701
10 0 59466    102.000000  0    -588716.793   5134351.988   4545386.941
10 0 59466    222.000000  0    -445189.023   5700803.915   3832647.527
10 0 59466    342.000000  0    -284861.303   6164943.885   3052433.238
10 0 59466    462.000000  0    -112399.536   6518382.929   2218469.994
10 0 59466    582.000000  0      67187.021   6754767.600   1345440.599
10 0 59466    702.000000  0     248672.212   6869900.189    448720.715
10 0 59466    822.000000  0     426744.819   6861818.292   -455898.974
10 0 59466    942.000000  0     596143.491   6730829.134  -1352500.279
10 0 59466   1062.000000  0     751789.153   6479496.731  -2225326.359
10 0 59466   1182.000000  0     888912.540   6112584.931  -3059065.171
10 0 59466   1302.000000  0    1003174.848   5636957.644  -3839122.352
10 0 59466   1422.000000  0    1090778.062   5061438.859  -4551878.071
10 0 59466   1542.000000  0    1148562.288   4396636.312  -5184922.310
10 0 59466   1662.000000  0    1174087.959   3654734.427  -5727264.163
10 0 59466   1782.000000  0    1165700.864   2849262.337  -6169513.816
10 0 59466   1902.000000  0    1122579.348   1994840.598  -6504034.055
10 0 59466   2022.000000  0    1044762.889   1106914.474  -6725059.910
10 0 59466   2142.000000  0     933161.886    201477.089  -6828788.904
10 0 59466   2262.000000  0     789548.758   -705214.366  -6813439.264
10 0 59466   2382.000000  0     616529.830  -1596924.392  -6679275.823
10 0 59466   2502.000000  0     417499.429  -2457721.305  -6428604.820
10 0 59466   2622.000000  0     196576.397  -3272254.889  -6065740.792
10 0 59466   2742.000000  0     -41477.326  -4026028.001  -5596940.473
99
